CCSDS_OMM_VERS = 2.0
CREATION_DATE  = 
ORIGINATOR     = 

OBJECT_NAME    = CONNECTA IOT-13
OBJECT_ID      = 2026-004AP
CENTER_NAME    = EARTH
REF_FRAME      = TEME
TIME_SYSTEM    = UTC
MEAN_ELEMENT_THEORY = SGP/SGP4

EPOCH          = 2026-01-31T10:52:04.010016
MEAN_MOTION    = 15.18334519
ECCENTRICITY   = .001106
INCLINATION    = 97.4539
RA_OF_ASC_NODE = 32.5347
ARG_OF_PERICENTER = 100.8406
MEAN_ANOMALY   = 259.4073

EPHEMERIS_TYPE = 0
CLASSIFICATION_TYPE = U
NORAD_CAT_ID   = 67400
ELEMENT_SET_NO = 999
REV_AT_EPOCH   = 301
BSTAR          = .24809E-3
MEAN_MOTION_DOT = .5033E-4
MEAN_MOTION_DDOT = 0

CCSDS_OMM_VERS = 2.0
CREATION_DATE  = 
ORIGINATOR     = 

OBJECT_NAME    = CONNECTA IOT-14
OBJECT_ID      = 2026-004AQ
CENTER_NAME    = EARTH
REF_FRAME      = TEME
TIME_SYSTEM    = UTC
MEAN_ELEMENT_THEORY = SGP/SGP4

EPOCH          = 2026-01-31T10:50:05.583264
MEAN_MOTION    = 15.18448837
ECCENTRICITY   = .001161
INCLINATION    = 97.4481
RA_OF_ASC_NODE = 32.5210
ARG_OF_PERICENTER = 96.1622
MEAN_ANOMALY   = 264.0935

EPHEMERIS_TYPE = 0
CLASSIFICATION_TYPE = U
NORAD_CAT_ID   = 67401
ELEMENT_SET_NO = 999
REV_AT_EPOCH   = 301
BSTAR          = .51498E-3
MEAN_MOTION_DOT = .10564E-3
MEAN_MOTION_DDOT = 0

CCSDS_OMM_VERS = 2.0
CREATION_DATE  = 
ORIGINATOR     = 

OBJECT_NAME    = CONNECTA IOT-15
OBJECT_ID      = 2026-004AR
CENTER_NAME    = EARTH
REF_FRAME      = TEME
TIME_SYSTEM    = UTC
MEAN_ELEMENT_THEORY = SGP/SGP4

EPOCH          = 2026-01-31T11:19:45.397344
MEAN_MOTION    = 15.16819455
ECCENTRICITY   = .0004938
INCLINATION    = 97.4542
RA_OF_ASC_NODE = 32.5106
ARG_OF_PERICENTER = 82.0130
MEAN_ANOMALY   = 278.1664

EPHEMERIS_TYPE = 0
CLASSIFICATION_TYPE = U
NORAD_CAT_ID   = 67402
ELEMENT_SET_NO = 999
REV_AT_EPOCH   = 300
BSTAR          = -.2651E-3
MEAN_MOTION_DOT = -.5271E-4
MEAN_MOTION_DDOT = 0

CCSDS_OMM_VERS = 2.0
CREATION_DATE  = 
ORIGINATOR     = 

OBJECT_NAME    = SHIJIAN-29B (SJ-29B)
OBJECT_ID      = 2025-315C
CENTER_NAME    = EARTH
REF_FRAME      = TEME
TIME_SYSTEM    = UTC
MEAN_ELEMENT_THEORY = SGP/SGP4

EPOCH          = 2026-01-31T17:17:36.569760
MEAN_MOTION    = 1.00271334
ECCENTRICITY   = .0001611
INCLINATION    = 3.0521
RA_OF_ASC_NODE = 98.6894
ARG_OF_PERICENTER = 307.4863
MEAN_ANOMALY   = 57.2553

EPHEMERIS_TYPE = 0
CLASSIFICATION_TYPE = U
NORAD_CAT_ID   = 67403
ELEMENT_SET_NO = 999
REV_AT_EPOCH   = 32
BSTAR          = 0
MEAN_MOTION_DOT = -.77E-6
MEAN_MOTION_DDOT = 0

CCSDS_OMM_VERS = 2.0
CREATION_DATE  = 
ORIGINATOR     = 

OBJECT_NAME    = STARLINK-36484
OBJECT_ID      = 2026-005A
CENTER_NAME    = EARTH
REF_FRAME      = TEME
TIME_SYSTEM    = UTC
MEAN_ELEMENT_THEORY = SGP/SGP4

EPOCH          = 2026-01-31T12:00:01.999296
MEAN_MOTION    = 15.55380184
ECCENTRICITY   = .0001364
INCLINATION    = 43.0007
RA_OF_ASC_NODE = 91.8153
ARG_OF_PERICENTER = 287.8880
MEAN_ANOMALY   = 121.8412

EPHEMERIS_TYPE = 0
CLASSIFICATION_TYPE = U
NORAD_CAT_ID   = 67404
ELEMENT_SET_NO = 999
REV_AT_EPOCH   = 415
BSTAR          = -.32637E-1
MEAN_MOTION_DOT = -.2034788E-1
MEAN_MOTION_DDOT = 0

CCSDS_OMM_VERS = 2.0
CREATION_DATE  = 
ORIGINATOR     = 

OBJECT_NAME    = STARLINK-36452
OBJECT_ID      = 2026-005B
CENTER_NAME    = EARTH
REF_FRAME      = TEME
TIME_SYSTEM    = UTC
MEAN_ELEMENT_THEORY = SGP/SGP4

EPOCH          = 2026-01-31T12:00:01.999296
MEAN_MOTION    = 15.55387518
ECCENTRICITY   = .0001349
INCLINATION    = 43.0005
RA_OF_ASC_NODE = 91.8105
ARG_OF_PERICENTER = 286.2283
MEAN_ANOMALY   = 125.4167

EPHEMERIS_TYPE = 0
CLASSIFICATION_TYPE = U
NORAD_CAT_ID   = 67405
ELEMENT_SET_NO = 999
REV_AT_EPOCH   = 415
BSTAR          = -.32824E-1
MEAN_MOTION_DOT = -.2045658E-1
MEAN_MOTION_DDOT = 0

CCSDS_OMM_VERS = 2.0
CREATION_DATE  = 
ORIGINATOR     = 

OBJECT_NAME    = STARLINK-36409
OBJECT_ID      = 2026-005C
CENTER_NAME    = EARTH
REF_FRAME      = TEME
TIME_SYSTEM    = UTC
MEAN_ELEMENT_THEORY = SGP/SGP4

EPOCH          = 2026-01-31T12:00:01.999296
MEAN_MOTION    = 15.55386258
ECCENTRICITY   = .0001496
INCLINATION    = 43.0003
RA_OF_ASC_NODE = 91.8052
ARG_OF_PERICENTER = 285.7213
MEAN_ANOMALY   = 127.8397

EPHEMERIS_TYPE = 0
CLASSIFICATION_TYPE = U
NORAD_CAT_ID   = 67406
ELEMENT_SET_NO = 999
REV_AT_EPOCH   = 420
BSTAR          = -.3275E-1
MEAN_MOTION_DOT = -.2041548E-1
MEAN_MOTION_DDOT = 0

CCSDS_OMM_VERS = 2.0
CREATION_DATE  = 
ORIGINATOR     = 

OBJECT_NAME    = STARLINK-36510
OBJECT_ID      = 2026-005D
CENTER_NAME    = EARTH
REF_FRAME      = TEME
TIME_SYSTEM    = UTC
MEAN_ELEMENT_THEORY = SGP/SGP4

EPOCH          = 2026-01-31T12:00:01.999296
MEAN_MOTION    = 15.55388045
ECCENTRICITY   = .0001472
INCLINATION    = 43.0006
RA_OF_ASC_NODE = 91.8008
ARG_OF_PERICENTER = 285.2735
MEAN_ANOMALY   = 130.2064

EPHEMERIS_TYPE = 0
CLASSIFICATION_TYPE = U
NORAD_CAT_ID   = 67407
ELEMENT_SET_NO = 999
REV_AT_EPOCH   = 420
BSTAR          = -.32843E-1
MEAN_MOTION_DOT = -.2046836E-1
MEAN_MOTION_DDOT = 0

CCSDS_OMM_VERS = 2.0
CREATION_DATE  = 
ORIGINATOR     = 

OBJECT_NAME    = STARLINK-36509
OBJECT_ID      = 2026-005E
CENTER_NAME    = EARTH
REF_FRAME      = TEME
TIME_SYSTEM    = UTC
MEAN_ELEMENT_THEORY = SGP/SGP4

EPOCH          = 2026-01-31T12:00:01.999296
MEAN_MOTION    = 15.55350912
ECCENTRICITY   = .0001293
INCLINATION    = 43.0004
RA_OF_ASC_NODE = 91.7957
ARG_OF_PERICENTER = 278.8443
MEAN_ANOMALY   = 138.5855

EPHEMERIS_TYPE = 0
CLASSIFICATION_TYPE = U
NORAD_CAT_ID   = 67408
ELEMENT_SET_NO = 999
REV_AT_EPOCH   = 420
BSTAR          = -.32282E-1
MEAN_MOTION_DOT = -.2012954E-1
MEAN_MOTION_DDOT = 0

CCSDS_OMM_VERS = 2.0
CREATION_DATE  = 
ORIGINATOR     = 

OBJECT_NAME    = STARLINK-36507
OBJECT_ID      = 2026-005F
CENTER_NAME    = EARTH
REF_FRAME      = TEME
TIME_SYSTEM    = UTC
MEAN_ELEMENT_THEORY = SGP/SGP4

EPOCH          = 2026-01-31T12:00:01.999296
MEAN_MOTION    = 15.55389919
ECCENTRICITY   = .00015
INCLINATION    = 43.0003
RA_OF_ASC_NODE = 91.7906
ARG_OF_PERICENTER = 281.4020
MEAN_ANOMALY   = 137.9126

EPHEMERIS_TYPE = 0
CLASSIFICATION_TYPE = U
NORAD_CAT_ID   = 67409
ELEMENT_SET_NO = 999
REV_AT_EPOCH   = 420
BSTAR          = -.32887E-1
MEAN_MOTION_DOT = -.2049425E-1
MEAN_MOTION_DDOT = 0

CCSDS_OMM_VERS = 2.0
CREATION_DATE  = 
ORIGINATOR     = 

OBJECT_NAME    = STARLINK-36508
OBJECT_ID      = 2026-005G
CENTER_NAME    = EARTH
REF_FRAME      = TEME
TIME_SYSTEM    = UTC
MEAN_ELEMENT_THEORY = SGP/SGP4

EPOCH          = 2026-01-31T12:00:01.999296
MEAN_MOTION    = 15.55393185
ECCENTRICITY   = .0001444
INCLINATION    = 43.0004
RA_OF_ASC_NODE = 91.7860
ARG_OF_PERICENTER = 285.4343
MEAN_ANOMALY   = 135.7940

EPHEMERIS_TYPE = 0
CLASSIFICATION_TYPE = U
NORAD_CAT_ID   = 67410
ELEMENT_SET_NO = 999
REV_AT_EPOCH   = 420
BSTAR          = -.32941E-1
MEAN_MOTION_DOT = -.2052624E-1
MEAN_MOTION_DDOT = 0

CCSDS_OMM_VERS = 2.0
CREATION_DATE  = 
ORIGINATOR     = 

OBJECT_NAME    = STARLINK-36503
OBJECT_ID      = 2026-005H
CENTER_NAME    = EARTH
REF_FRAME      = TEME
TIME_SYSTEM    = UTC
MEAN_ELEMENT_THEORY = SGP/SGP4

EPOCH          = 2026-01-31T12:00:01.999296
MEAN_MOTION    = 15.55375699
ECCENTRICITY   = .0001545
INCLINATION    = 43.0009
RA_OF_ASC_NODE = 91.7808
ARG_OF_PERICENTER = 283.1448
MEAN_ANOMALY   = 140.0054

EPHEMERIS_TYPE = 0
CLASSIFICATION_TYPE = U
NORAD_CAT_ID   = 67411
ELEMENT_SET_NO = 999
REV_AT_EPOCH   = 394
BSTAR          = -.32504E-1
MEAN_MOTION_DOT = -.2027184E-1
MEAN_MOTION_DDOT = 0

