CONNECTA IOT-13         
1 67400U 26004AP  26031.45282419  .00005033  00000+0  24809-3 0  9992
2 67400  97.4539  32.5347 0011060 100.8406 259.4073 15.18334519  3011
CONNECTA IOT-14         
1 67401U 26004AQ  26031.45145351  .00010564  00000+0  51498-3 0  9995
2 67401  97.4481  32.5210 0011610  96.1622 264.0935 15.18448837  3013
CONNECTA IOT-15         
1 67402U 26004AR  26031.47205321 -.00005271  00000+0 -26510-3 0  9990
2 67402  97.4542  32.5106 0004938  82.0130 278.1664 15.16819455  3009
SHIJIAN-29B (SJ-29B)    
1 67403U 25315C   26031.72056215 -.00000077  00000+0  00000+0 0  9999
2 67403   3.0521  98.6894 0001611 307.4863  57.2553  1.00271334   320
STARLINK-36484          
1 67404U 26005A   26031.50002314 -.02034788  00000+0 -32637-1 0  9996
2 67404  43.0007  91.8153 0001364 287.8880 121.8412 15.55380184  4158
STARLINK-36452          
1 67405U 26005B   26031.50002314 -.02045658  00000+0 -32824-1 0  9993
2 67405  43.0005  91.8105 0001349 286.2283 125.4167 15.55387518  4152
STARLINK-36409          
1 67406U 26005C   26031.50002314 -.02041548  00000+0 -32750-1 0  9996
2 67406  43.0003  91.8052 0001496 285.7213 127.8397 15.55386258  4209
STARLINK-36510          
1 67407U 26005D   26031.50002314 -.02046836  00000+0 -32843-1 0  9995
2 67407  43.0006  91.8008 0001472 285.2735 130.2064 15.55388045  4207
STARLINK-36509          
1 67408U 26005E   26031.50002314 -.02012954  00000+0 -32282-1 0  9997
2 67408  43.0004  91.7957 0001293 278.8443 138.5855 15.55350912  4204
STARLINK-36507          
1 67409U 26005F   26031.50002314 -.02049425  00000+0 -32887-1 0  9992
2 67409  43.0003  91.7906 0001500 281.4020 137.9126 15.55389919  4203
STARLINK-36508          
1 67410U 26005G   26031.50002314 -.02052624  00000+0 -32941-1 0  9990
2 67410  43.0004  91.7860 0001444 285.4343 135.7940 15.55393185  4204
STARLINK-36503          
1 67411U 26005H   26031.50002314 -.02027184  00000+0 -32504-1 0  9999
2 67411  43.0009  91.7808 0001545 283.1448 140.0054 15.55375699  3940
